{
  "type": "FeatureCollection",
  "features": [
    {
      "type": "Feature",
      "properties": {
        "norad_id": 35022,
        "name": "COSMOS 2251 DEB",
        "group": "cosmos-2251-debris",
        "lat": 54.23697865145771,
        "lon": 121.8580852694191,
        "alt_km": 660.8777385168887,
        "timestamp": "2025-12-10T23:33:13.213727+00:00",
        "meta_object_name": "COSMOS 2251 DEB",
        "meta_object_id": "1993-036AGK",
        "meta_epoch": "2025-12-08T16:45:20.077056",
        "meta_mean_motion": 14.60807192,
        "meta_eccentricity": 0.0046993,
        "meta_inclination": 74.0257,
        "meta_ra_of_asc_node": 329.6569,
        "meta_arg_of_pericenter": 170.8022,
        "meta_mean_anomaly": 189.4016,
        "meta_ephemeris_type": 0,
        "meta_classification_type": "U",
        "meta_norad_cat_id": 35022,
        "meta_element_set_no": 999,
        "meta_rev_at_epoch": 59084,
        "meta_bstar": 0.00059202,
        "meta_mean_motion_dot": 2.907e-05,
        "meta_mean_motion_ddot": 0,
        "tle_line1": "1 35022U 93036AGK 25342.69814904  .00002907  00000+0  59202-3 0  9998",
        "tle_line2": "2 35022  74.0257 329.6569 0046993 170.8022 189.4016 14.60807192590843"
      },
      "geometry": {
        "type": "Point",
        "coordinates": [
          121.8580852694191,
          54.23697865145771
        ]
      }
    },
    {
      "type": "Feature",
      "properties": {
        "norad_id": 35023,
        "name": "COSMOS 2251 DEB",
        "group": "cosmos-2251-debris",
        "lat": 71.82841596246597,
        "lon": -83.16905960164212,
        "alt_km": 594.9597101258414,
        "timestamp": "2025-12-10T23:33:13.213736+00:00",
        "meta_object_name": "COSMOS 2251 DEB",
        "meta_object_id": "1993-036AGL",
        "meta_epoch": "2025-12-09T20:26:49.814016",
        "meta_mean_motion": 14.94951153,
        "meta_eccentricity": 0.0034088,
        "meta_inclination": 74.0373,
        "meta_ra_of_asc_node": 218.4096,
        "meta_arg_of_pericenter": 296.79,
        "meta_mean_anomaly": 188.2732,
        "meta_ephemeris_type": 0,
        "meta_classification_type": "U",
        "meta_norad_cat_id": 35023,
        "meta_element_set_no": 999,
        "meta_rev_at_epoch": 88236,
        "meta_bstar": 0.0020903003,
        "meta_mean_motion_dot": 0.00023135,
        "meta_mean_motion_ddot": 0,
        "tle_line1": "1 35023U 93036AGL 25343.85196544  .00023135  00000+0  20903-2 0  9992",
        "tle_line2": "2 35023  74.0373 218.4096 0034088 296.7900 188.2732 14.94951153882365"
      },
      "geometry": {
        "type": "Point",
        "coordinates": [
          -83.16905960164212,
          71.82841596246597
        ]
      }
    },
    {
      "type": "Feature",
      "properties": {
        "norad_id": 35025,
        "name": "COSMOS 2251 DEB",
        "group": "cosmos-2251-debris",
        "lat": -59.36207143679721,
        "lon": 37.26731766117216,
        "alt_km": 615.3302786843733,
        "timestamp": "2025-12-10T23:33:13.213745+00:00",
        "meta_object_name": "COSMOS 2251 DEB",
        "meta_object_id": "1993-036AGN",
        "meta_epoch": "2025-12-10T12:25:29.737920",
        "meta_mean_motion": 14.72689976,
        "meta_eccentricity": 0.00850596,
        "meta_inclination": 73.9386,
        "meta_ra_of_asc_node": 67.2803,
        "meta_arg_of_pericenter": 340.5851,
        "meta_mean_anomaly": 19.2085,
        "meta_ephemeris_type": 0,
        "meta_classification_type": "U",
        "meta_norad_cat_id": 35025,
        "meta_element_set_no": 999,
        "meta_rev_at_epoch": 88610,
        "meta_bstar": 0.00057503553,
        "meta_mean_motion_dot": 3.849e-05,
        "meta_mean_motion_ddot": 0,
        "tle_line1": "1 35025U 93036AGN 25344.51770530  .00003849  00000+0  57504-3 0  9999",
        "tle_line2": "2 35025  73.9386  67.2803 0085059 340.5851  19.2085 14.72689976886109"
      },
      "geometry": {
        "type": "Point",
        "coordinates": [
          37.26731766117216,
          -59.36207143679721
        ]
      }
    },
    {
      "type": "Feature",
      "properties": {
        "norad_id": 35026,
        "name": "COSMOS 2251 DEB",
        "group": "cosmos-2251-debris",
        "lat": -66.49449240988794,
        "lon": -79.00282702320138,
        "alt_km": 770.4151327785294,
        "timestamp": "2025-12-10T23:33:13.213754+00:00",
        "meta_object_name": "COSMOS 2251 DEB",
        "meta_object_id": "1993-036AGP",
        "meta_epoch": "2025-12-09T17:19:11.851680",
        "meta_mean_motion": 14.53620559,
        "meta_eccentricity": 0.00822851,
        "meta_inclination": 74.0465,
        "meta_ra_of_asc_node": 324.4997,
        "meta_arg_of_pericenter": 78.8083,
        "meta_mean_anomaly": 99.6497,
        "meta_ephemeris_type": 0,
        "meta_classification_type": "U",
        "meta_norad_cat_id": 35026,
        "meta_element_set_no": 999,
        "meta_rev_at_epoch": 88099,
        "meta_bstar": 0.00012249253,
        "meta_mean_motion_dot": 5.06e-06,
        "meta_mean_motion_ddot": 0,
        "tle_line1": "1 35026U 93036AGP 25343.72166495  .00000506  00000+0  12249-3 0  9995",
        "tle_line2": "2 35026  74.0465 324.4997 0082285  78.8083  99.6497 14.53620559880999"
      },
      "geometry": {
        "type": "Point",
        "coordinates": [
          -79.00282702320138,
          -66.49449240988794
        ]
      }
    },
    {
      "type": "Feature",
      "properties": {
        "norad_id": 35028,
        "name": "COSMOS 2251 DEB",
        "group": "cosmos-2251-debris",
        "lat": 20.56427433107045,
        "lon": -79.516156424276,
        "alt_km": 651.9213115739522,
        "timestamp": "2025-12-10T23:33:13.213763+00:00",
        "meta_object_name": "COSMOS 2251 DEB",
        "meta_object_id": "1993-036AGR",
        "meta_epoch": "2025-12-06T14:45:20.784960",
        "meta_mean_motion": 14.56559763,
        "meta_eccentricity": 0.00822588,
        "meta_inclination": 74.0381,
        "meta_ra_of_asc_node": 282.6027,
        "meta_arg_of_pericenter": 57.9846,
        "meta_mean_anomaly": 116.6366,
        "meta_ephemeris_type": 0,
        "meta_classification_type": "U",
        "meta_norad_cat_id": 35028,
        "meta_element_set_no": 999,
        "meta_rev_at_epoch": 88196,
        "meta_bstar": 0.00020909724,
        "meta_mean_motion_dot": 9.44e-06,
        "meta_mean_motion_ddot": 0,
        "tle_line1": "1 35028U 93036AGR 25340.61482390  .00000944  00000+0  20910-3 0  9997",
        "tle_line2": "2 35028  74.0381 282.6027 0082258  57.9846 116.6366 14.56559763881966"
      },
      "geometry": {
        "type": "Point",
        "coordinates": [
          -79.516156424276,
          20.56427433107045
        ]
      }
    },
    {
      "type": "Feature",
      "properties": {
        "norad_id": 35031,
        "name": "COSMOS 2251 DEB",
        "group": "cosmos-2251-debris",
        "lat": 46.464980749219706,
        "lon": -79.96488803723335,
        "alt_km": 751.632102745406,
        "timestamp": "2025-12-10T23:33:13.213776+00:00",
        "meta_object_name": "COSMOS 2251 DEB",
        "meta_object_id": "1993-036AGU",
        "meta_epoch": "2025-12-08T11:13:55.739136",
        "meta_mean_motion": 14.3828637,
        "meta_eccentricity": 0.00186752,
        "meta_inclination": 74.0383,
        "meta_ra_of_asc_node": 267.1323,
        "meta_arg_of_pericenter": 1.498,
        "meta_mean_anomaly": 358.6226,
        "meta_ephemeris_type": 0,
        "meta_classification_type": "U",
        "meta_norad_cat_id": 35031,
        "meta_element_set_no": 999,
        "meta_rev_at_epoch": 65222,
        "meta_bstar": 0.00036337037,
        "meta_mean_motion_dot": 1.081e-05,
        "meta_mean_motion_ddot": 0,
        "tle_line1": "1 35031U 93036AGU 25342.46800624  .00001081  00000+0  36337-3 0  9993",
        "tle_line2": "2 35031  74.0383 267.1323 0018675   1.4980 358.6226 14.38286370652223"
      },
      "geometry": {
        "type": "Point",
        "coordinates": [
          -79.96488803723335,
          46.464980749219706
        ]
      }
    },
    {
      "type": "Feature",
      "properties": {
        "norad_id": 35032,
        "name": "COSMOS 2251 DEB",
        "group": "cosmos-2251-debris",
        "lat": 34.04070738481632,
        "lon": 179.37759690148258,
        "alt_km": 684.4508628487874,
        "timestamp": "2025-12-10T23:33:13.213785+00:00",
        "meta_object_name": "COSMOS 2251 DEB",
        "meta_object_id": "1993-036AGV",
        "meta_epoch": "2025-12-10T10:00:50.078592",
        "meta_mean_motion": 14.58692479,
        "meta_eccentricity": 0.00685311,
        "meta_inclination": 73.852,
        "meta_ra_of_asc_node": 11.7508,
        "meta_arg_of_pericenter": 223.4712,
        "meta_mean_anomaly": 200.2,
        "meta_ephemeris_type": 0,
        "meta_classification_type": "U",
        "meta_norad_cat_id": 35032,
        "meta_element_set_no": 999,
        "meta_rev_at_epoch": 87640,
        "meta_bstar": 0.001314815,
        "meta_mean_motion_dot": 6.308e-05,
        "meta_mean_motion_ddot": 0,
        "tle_line1": "1 35032U 93036AGV 25344.41724628  .00006308  00000+0  13148-2 0  9991",
        "tle_line2": "2 35032  73.8520  11.7508 0068531 223.4712 200.2000 14.58692479876400"
      },
      "geometry": {
        "type": "Point",
        "coordinates": [
          179.37759690148258,
          34.04070738481632
        ]
      }
    }
  ]
}